{
  "type": "FeatureCollection",
  "features": [
    {
      "type": "Feature",
      "properties": {
        "norad_id": 29843,
        "name": "FENGYUN 1C DEB",
        "group": "fengyun-1c-debris",
        "lat": -17.54236789691815,
        "lon": 17.213454779004405,
        "alt_km": 713.229383017273,
        "timestamp": "2025-12-27T05:29:39.474605+00:00",
        "meta_object_name": "FENGYUN 1C DEB",
        "meta_object_id": "1999-025EM",
        "meta_epoch": "2025-12-26T13:45:26.815392",
        "meta_mean_motion": 14.28581761,
        "meta_eccentricity": 0.0191592,
        "meta_inclination": 99.0366,
        "meta_ra_of_asc_node": 199.4178,
        "meta_arg_of_pericenter": 250.5273,
        "meta_mean_anomaly": 178.507,
        "meta_ephemeris_type": 0,
        "meta_classification_type": "U",
        "meta_norad_cat_id": 29843,
        "meta_element_set_no": 999,
        "meta_rev_at_epoch": 98479,
        "meta_bstar": 0.0002699,
        "meta_mean_motion_dot": 7.71e-06,
        "meta_mean_motion_ddot": 0,
        "tle_line1": "1 29843U 99025EM  25360.57322703  .00000771  00000+0  26990-3 0  9999",
        "tle_line2": "2 29843  99.0366 199.4178 0191592 250.5273 178.5070 14.28581761984799"
      },
      "geometry": {
        "type": "Point",
        "coordinates": [
          17.213454779004405,
          -17.54236789691815
        ]
      }
    },
    {
      "type": "Feature",
      "properties": {
        "norad_id": 29844,
        "name": "FENGYUN 1C DEB",
        "group": "fengyun-1c-debris",
        "lat": 57.6145586854883,
        "lon": -111.3546327029456,
        "alt_km": 728.6086666250767,
        "timestamp": "2025-12-27T05:29:39.474615+00:00",
        "meta_object_name": "FENGYUN 1C DEB",
        "meta_object_id": "1999-025EN",
        "meta_epoch": "2025-12-26T10:46:26.524704",
        "meta_mean_motion": 14.3201608,
        "meta_eccentricity": 0.0168686,
        "meta_inclination": 98.937,
        "meta_ra_of_asc_node": 262.2068,
        "meta_arg_of_pericenter": 127.0989,
        "meta_mean_anomaly": 234.5746,
        "meta_ephemeris_type": 0,
        "meta_classification_type": "U",
        "meta_norad_cat_id": 29844,
        "meta_element_set_no": 999,
        "meta_rev_at_epoch": 98537,
        "meta_bstar": 0.00040541,
        "meta_mean_motion_dot": 1.224e-05,
        "meta_mean_motion_ddot": 0,
        "tle_line1": "1 29844U 99025EN  25360.44891811  .00001224  00000+0  40541-3 0  9999",
        "tle_line2": "2 29844  98.9370 262.2068 0168686 127.0989 234.5746 14.32016080985370"
      },
      "geometry": {
        "type": "Point",
        "coordinates": [
          -111.3546327029456,
          57.6145586854883
        ]
      }
    },
    {
      "type": "Feature",
      "properties": {
        "norad_id": 29845,
        "name": "FENGYUN 1C DEB",
        "group": "fengyun-1c-debris",
        "lat": 23.81631918894099,
        "lon": -2.607294512138995,
        "alt_km": 778.6798121436887,
        "timestamp": "2025-12-27T05:29:39.474625+00:00",
        "meta_object_name": "FENGYUN 1C DEB",
        "meta_object_id": "1999-025EP",
        "meta_epoch": "2025-12-26T22:54:56.530944",
        "meta_mean_motion": 14.26520758,
        "meta_eccentricity": 0.0078169,
        "meta_inclination": 98.5222,
        "meta_ra_of_asc_node": 0.9207,
        "meta_arg_of_pericenter": 89.9793,
        "meta_mean_anomaly": 328.1598,
        "meta_ephemeris_type": 0,
        "meta_classification_type": "U",
        "meta_norad_cat_id": 29845,
        "meta_element_set_no": 999,
        "meta_rev_at_epoch": 98312,
        "meta_bstar": 0.00058757939,
        "meta_mean_motion_dot": 1.421e-05,
        "meta_mean_motion_ddot": 0,
        "tle_line1": "1 29845U 99025EP  25360.95482096  .00001421  00000+0  58758-3 0  9995",
        "tle_line2": "2 29845  98.5222   0.9207 0078169  89.9793 328.1598 14.26520758983121"
      },
      "geometry": {
        "type": "Point",
        "coordinates": [
          -2.607294512138995,
          23.81631918894099
        ]
      }
    },
    {
      "type": "Feature",
      "properties": {
        "norad_id": 29846,
        "name": "FENGYUN 1C DEB",
        "group": "fengyun-1c-debris",
        "lat": 30.247893049568706,
        "lon": 37.614567975672664,
        "alt_km": 864.1917289509747,
        "timestamp": "2025-12-27T05:29:39.474636+00:00",
        "meta_object_name": "FENGYUN 1C DEB",
        "meta_object_id": "1999-025EQ",
        "meta_epoch": "2025-12-26T21:43:22.805184",
        "meta_mean_motion": 14.19101358,
        "meta_eccentricity": 0.00837804,
        "meta_inclination": 98.6533,
        "meta_ra_of_asc_node": 42.3931,
        "meta_arg_of_pericenter": 262.987,
        "meta_mean_anomaly": 273.6842,
        "meta_ephemeris_type": 0,
        "meta_classification_type": "U",
        "meta_norad_cat_id": 29846,
        "meta_element_set_no": 999,
        "meta_rev_at_epoch": 98060,
        "meta_bstar": 0.00016540894,
        "meta_mean_motion_dot": 3.14e-06,
        "meta_mean_motion_ddot": 0,
        "tle_line1": "1 29846U 99025EQ  25360.90512506  .00000314  00000+0  16541-3 0  9995",
        "tle_line2": "2 29846  98.6533  42.3931 0083780 262.9870 273.6842 14.19101358980605"
      },
      "geometry": {
        "type": "Point",
        "coordinates": [
          37.614567975672664,
          30.247893049568706
        ]
      }
    },
    {
      "type": "Feature",
      "properties": {
        "norad_id": 29847,
        "name": "FENGYUN 1C DEB",
        "group": "fengyun-1c-debris",
        "lat": 21.279455962329273,
        "lon": -179.67821756934433,
        "alt_km": 940.754506969969,
        "timestamp": "2025-12-27T05:29:39.474646+00:00",
        "meta_object_name": "FENGYUN 1C DEB",
        "meta_object_id": "1999-025ER",
        "meta_epoch": "2025-12-26T22:10:35.887872",
        "meta_mean_motion": 14.03014947,
        "meta_eccentricity": 0.00846964,
        "meta_inclination": 98.9041,
        "meta_ra_of_asc_node": 356.5231,
        "meta_arg_of_pericenter": 359.5437,
        "meta_mean_anomaly": 59.2909,
        "meta_ephemeris_type": 0,
        "meta_classification_type": "U",
        "meta_norad_cat_id": 29847,
        "meta_element_set_no": 999,
        "meta_rev_at_epoch": 96934,
        "meta_bstar": 0.00035082246,
        "meta_mean_motion_dot": 5.19e-06,
        "meta_mean_motion_ddot": 0,
        "tle_line1": "1 29847U 99025ER  25360.92402648  .00000519  00000+0  35082-3 0  9991",
        "tle_line2": "2 29847  98.9041 356.5231 0084696 359.5437  59.2909 14.03014947969345"
      },
      "geometry": {
        "type": "Point",
        "coordinates": [
          -179.67821756934433,
          21.279455962329273
        ]
      }
    },
    {
      "type": "Feature",
      "properties": {
        "norad_id": 29848,
        "name": "FENGYUN 1C DEB",
        "group": "fengyun-1c-debris",
        "lat": 21.80396040966831,
        "lon": 50.195506883415796,
        "alt_km": 829.1097741722679,
        "timestamp": "2025-12-27T05:29:39.474655+00:00",
        "meta_object_name": "FENGYUN 1C DEB",
        "meta_object_id": "1999-025ES",
        "meta_epoch": "2025-12-26T22:02:42.514368",
        "meta_mean_motion": 14.20648048,
        "meta_eccentricity": 0.01162851,
        "meta_inclination": 98.2484,
        "meta_ra_of_asc_node": 226.579,
        "meta_arg_of_pericenter": 253.6837,
        "meta_mean_anomaly": 119.0074,
        "meta_ephemeris_type": 0,
        "meta_classification_type": "U",
        "meta_norad_cat_id": 29848,
        "meta_element_set_no": 999,
        "meta_rev_at_epoch": 97319,
        "meta_bstar": 0.0014584,
        "meta_mean_motion_dot": 3.322e-05,
        "meta_mean_motion_ddot": 0,
        "tle_line1": "1 29848U 99025ES  25360.91854762  .00003322  00000+0  14584-2 0  9997",
        "tle_line2": "2 29848  98.2484 226.5790 0116285 253.6837 119.0074 14.20648048973194"
      },
      "geometry": {
        "type": "Point",
        "coordinates": [
          50.195506883415796,
          21.80396040966831
        ]
      }
    },
    {
      "type": "Feature",
      "properties": {
        "norad_id": 29849,
        "name": "FENGYUN 1C DEB",
        "group": "fengyun-1c-debris",
        "lat": -80.7406106431909,
        "lon": -171.20663301817052,
        "alt_km": 889.5540977645041,
        "timestamp": "2025-12-27T05:29:39.474666+00:00",
        "meta_object_name": "FENGYUN 1C DEB",
        "meta_object_id": "1999-025ET",
        "meta_epoch": "2025-12-26T18:33:23.984064",
        "meta_mean_motion": 14.04932328,
        "meta_eccentricity": 0.00798067,
        "meta_inclination": 99.01,
        "meta_ra_of_asc_node": 85.0516,
        "meta_arg_of_pericenter": 5.0241,
        "meta_mean_anomaly": 120.0338,
        "meta_ephemeris_type": 0,
        "meta_classification_type": "U",
        "meta_norad_cat_id": 29849,
        "meta_element_set_no": 999,
        "meta_rev_at_epoch": 96567,
        "meta_bstar": 0.0010490917,
        "meta_mean_motion_dot": 1.691e-05,
        "meta_mean_motion_ddot": 0,
        "tle_line1": "1 29849U 99025ET  25360.77319426  .00001691  00000+0  10491-2 0  9995",
        "tle_line2": "2 29849  99.0100  85.0516 0079806   5.0241 120.0338 14.04932328965676"
      },
      "geometry": {
        "type": "Point",
        "coordinates": [
          -171.20663301817052,
          -80.7406106431909
        ]
      }
    }
  ]
}